{
  "type": "FeatureCollection",
  "features": [
    {
      "type": "Feature",
      "properties": {
        "norad_id": 31258,
        "name": "FENGYUN 1C DEB",
        "group": "fengyun-1c-debris",
        "lat": -56.39149240499981,
        "lon": 139.85172944098275,
        "alt_km": 544.5976474482986,
        "timestamp": "2025-12-04T15:47:54.379662+00:00",
        "meta_object_name": "FENGYUN 1C DEB",
        "meta_object_id": "1999-025BMQ",
        "meta_epoch": "2025-12-03T08:20:25.022112",
        "meta_mean_motion": 15.08271995,
        "meta_eccentricity": 0.0004715,
        "meta_inclination": 98.8532,
        "meta_ra_of_asc_node": 124.7789,
        "meta_arg_of_pericenter": 266.4838,
        "meta_mean_anomaly": 122.221,
        "meta_ephemeris_type": 0,
        "meta_classification_type": "U",
        "meta_norad_cat_id": 31258,
        "meta_element_set_no": 999,
        "meta_rev_at_epoch": 96969,
        "meta_bstar": 0.011372,
        "meta_mean_motion_dot": 0.00180633,
        "meta_mean_motion_ddot": 0,
        "tle_line1": "1 31258U 99025BMQ 25337.34751183  .00180633  00000+0  11372-1 0  9991",
        "tle_line2": "2 31258  98.8532 124.7789 0004715 266.4838 122.2210 15.08271995969694"
      },
      "geometry": {
        "type": "Point",
        "coordinates": [
          139.85172944098275,
          -56.39149240499981
        ]
      }
    },
    {
      "type": "Feature",
      "properties": {
        "norad_id": 31259,
        "name": "FENGYUN 1C DEB",
        "group": "fengyun-1c-debris",
        "lat": 65.5448350200289,
        "lon": -101.80164891992493,
        "alt_km": 848.3263311613146,
        "timestamp": "2025-12-04T15:47:54.379672+00:00",
        "meta_object_name": "FENGYUN 1C DEB",
        "meta_object_id": "1999-025BMR",
        "meta_epoch": "2025-12-04T02:14:43.056960",
        "meta_mean_motion": 14.14932581,
        "meta_eccentricity": 0.00654641,
        "meta_inclination": 99.0108,
        "meta_ra_of_asc_node": 57.2076,
        "meta_arg_of_pericenter": 219.7624,
        "meta_mean_anomaly": 258.8206,
        "meta_ephemeris_type": 0,
        "meta_classification_type": "U",
        "meta_norad_cat_id": 31259,
        "meta_element_set_no": 999,
        "meta_rev_at_epoch": 95447,
        "meta_bstar": 0.0037842074,
        "meta_mean_motion_dot": 7.429e-05,
        "meta_mean_motion_ddot": 0,
        "tle_line1": "1 31259U 99025BMR 25338.09355390  .00007429  00000+0  37842-2 0  9997",
        "tle_line2": "2 31259  99.0108  57.2076 0065464 219.7624 258.8206 14.14932581954470"
      },
      "geometry": {
        "type": "Point",
        "coordinates": [
          -101.80164891992493,
          65.5448350200289
        ]
      }
    },
    {
      "type": "Feature",
      "properties": {
        "norad_id": 31260,
        "name": "FENGYUN 1C DEB",
        "group": "fengyun-1c-debris",
        "lat": -63.363179722556026,
        "lon": -106.39435511866277,
        "alt_km": 745.9191438733233,
        "timestamp": "2025-12-04T15:47:54.379682+00:00",
        "meta_object_name": "FENGYUN 1C DEB",
        "meta_object_id": "1999-025BMS",
        "meta_epoch": "2025-12-03T23:28:14.644992",
        "meta_mean_motion": 14.36338321,
        "meta_eccentricity": 0.00477227,
        "meta_inclination": 98.9567,
        "meta_ra_of_asc_node": 234.5718,
        "meta_arg_of_pericenter": 318.4275,
        "meta_mean_anomaly": 61.1838,
        "meta_ephemeris_type": 0,
        "meta_classification_type": "U",
        "meta_norad_cat_id": 31260,
        "meta_element_set_no": 999,
        "meta_rev_at_epoch": 97068,
        "meta_bstar": 0.0022261094,
        "meta_mean_motion_dot": 6.555e-05,
        "meta_mean_motion_ddot": 0,
        "tle_line1": "1 31260U 99025BMS 25337.97794728  .00006555  00000+0  22261-2 0  9995",
        "tle_line2": "2 31260  98.9567 234.5718 0047722 318.4275  61.1838 14.36338321970681"
      },
      "geometry": {
        "type": "Point",
        "coordinates": [
          -106.39435511866277,
          -63.363179722556026
        ]
      }
    },
    {
      "type": "Feature",
      "properties": {
        "norad_id": 31261,
        "name": "FENGYUN 1C DEB",
        "group": "fengyun-1c-debris",
        "lat": -24.17067968980464,
        "lon": 107.55954082261418,
        "alt_km": 742.3085010713294,
        "timestamp": "2025-12-04T15:47:54.379692+00:00",
        "meta_object_name": "FENGYUN 1C DEB",
        "meta_object_id": "1999-025BMT",
        "meta_epoch": "2025-12-04T03:10:26.911488",
        "meta_mean_motion": 14.39990196,
        "meta_eccentricity": 0.00502217,
        "meta_inclination": 99.0139,
        "meta_ra_of_asc_node": 291.0915,
        "meta_arg_of_pericenter": 258.9513,
        "meta_mean_anomaly": 100.6023,
        "meta_ephemeris_type": 0,
        "meta_classification_type": "U",
        "meta_norad_cat_id": 31261,
        "meta_element_set_no": 999,
        "meta_rev_at_epoch": 97226,
        "meta_bstar": 0.0022181883,
        "meta_mean_motion_dot": 7.047e-05,
        "meta_mean_motion_ddot": 0,
        "tle_line1": "1 31261U 99025BMT 25338.13225592  .00007047  00000+0  22182-2 0  9992",
        "tle_line2": "2 31261  99.0139 291.0915 0050221 258.9513 100.6023 14.39990196972265"
      },
      "geometry": {
        "type": "Point",
        "coordinates": [
          107.55954082261418,
          -24.17067968980464
        ]
      }
    },
    {
      "type": "Feature",
      "properties": {
        "norad_id": 31262,
        "name": "FENGYUN 1C DEB",
        "group": "fengyun-1c-debris",
        "lat": 39.37746660764578,
        "lon": -110.52103937474689,
        "alt_km": 790.4201318542409,
        "timestamp": "2025-12-04T15:47:54.379703+00:00",
        "meta_object_name": "FENGYUN 1C DEB",
        "meta_object_id": "1999-025BMU",
        "meta_epoch": "2025-12-04T05:14:42.038304",
        "meta_mean_motion": 14.18091019,
        "meta_eccentricity": 0.00562044,
        "meta_inclination": 99.0031,
        "meta_ra_of_asc_node": 61.5565,
        "meta_arg_of_pericenter": 122.0091,
        "meta_mean_anomaly": 294.116,
        "meta_ephemeris_type": 0,
        "meta_classification_type": "U",
        "meta_norad_cat_id": 31262,
        "meta_element_set_no": 999,
        "meta_rev_at_epoch": 95588,
        "meta_bstar": 0.0039565701,
        "meta_mean_motion_dot": 8.207e-05,
        "meta_mean_motion_ddot": 0,
        "tle_line1": "1 31262U 99025BMU 25338.21854211  .00008207  00000+0  39566-2 0  9991",
        "tle_line2": "2 31262  99.0031  61.5565 0056204 122.0091 294.1160 14.18091019955880"
      },
      "geometry": {
        "type": "Point",
        "coordinates": [
          -110.52103937474689,
          39.37746660764578
        ]
      }
    },
    {
      "type": "Feature",
      "properties": {
        "norad_id": 31263,
        "name": "FENGYUN 1C DEB",
        "group": "fengyun-1c-debris",
        "lat": 76.26552543504683,
        "lon": 121.34366658867627,
        "alt_km": 437.64418392395146,
        "timestamp": "2025-12-04T15:47:54.379713+00:00",
        "meta_object_name": "FENGYUN 1C DEB",
        "meta_object_id": "1999-025BMV",
        "meta_epoch": "2025-12-04T07:32:53.964672",
        "meta_mean_motion": 15.36135277,
        "meta_eccentricity": 0.00168594,
        "meta_inclination": 98.9945,
        "meta_ra_of_asc_node": 260.527,
        "meta_arg_of_pericenter": 116.7832,
        "meta_mean_anomaly": 243.5133,
        "meta_ephemeris_type": 0,
        "meta_classification_type": "U",
        "meta_norad_cat_id": 31263,
        "meta_element_set_no": 999,
        "meta_rev_at_epoch": 97036,
        "meta_bstar": 0.02235481,
        "meta_mean_motion_dot": 0.00855451,
        "meta_mean_motion_ddot": 0,
        "tle_line1": "1 31263U 99025BMV 25338.31451348  .00855451  00000+0  22355-1 0  9995",
        "tle_line2": "2 31263  98.9945 260.5270 0016859 116.7832 243.5133 15.36135277970366"
      },
      "geometry": {
        "type": "Point",
        "coordinates": [
          121.34366658867627,
          76.26552543504683
        ]
      }
    },
    {
      "type": "Feature",
      "properties": {
        "norad_id": 31264,
        "name": "FENGYUN 1C DEB",
        "group": "fengyun-1c-debris",
        "lat": 76.61806169660234,
        "lon": 97.85851617981517,
        "alt_km": 822.9711558705867,
        "timestamp": "2025-12-04T15:47:54.379724+00:00",
        "meta_object_name": "FENGYUN 1C DEB",
        "meta_object_id": "1999-025BMW",
        "meta_epoch": "2025-12-02T11:42:10.884672",
        "meta_mean_motion": 14.1855128,
        "meta_eccentricity": 0.00013742,
        "meta_inclination": 99.1144,
        "meta_ra_of_asc_node": 233.1912,
        "meta_arg_of_pericenter": 15.7646,
        "meta_mean_anomaly": 165.1682,
        "meta_ephemeris_type": 0,
        "meta_classification_type": "U",
        "meta_norad_cat_id": 31264,
        "meta_element_set_no": 999,
        "meta_rev_at_epoch": 96283,
        "meta_bstar": 0.00076770164,
        "meta_mean_motion_dot": 1.542e-05,
        "meta_mean_motion_ddot": 0,
        "tle_line1": "1 31264U 99025BMW 25336.48762598  .00001542  00000+0  76770-3 0  9990",
        "tle_line2": "2 31264  99.1144 233.1912 0001374  15.7646 165.1682 14.18551280962833"
      },
      "geometry": {
        "type": "Point",
        "coordinates": [
          97.85851617981517,
          76.61806169660234
        ]
      }
    }
  ]
}